[{"OBJECT_NAME":"STARLINK-36110","OBJECT_ID":"2025-286W","EPOCH":"2026-03-17T09:46:18.990336","MEAN_MOTION":15.30179699,"ECCENTRICITY":9.672e-5,"INCLINATION":53.1604,"RA_OF_ASC_NODE":322.9343,"ARG_OF_PERICENTER":119.8526,"MEAN_ANOMALY":240.2571,"EPHEMERIS_TYPE":0,"CLASSIFICATION_TYPE":"U","NORAD_CAT_ID":66945,"ELEMENT_SET_NO":999,"REV_AT_EPOCH":1659,"BSTAR":0.00060556516,"MEAN_MOTION_DOT":0.00017607,"MEAN_MOTION_DDOT":0},{"OBJECT_NAME":"STARLINK-36115","OBJECT_ID":"2025-286X","EPOCH":"2026-03-17T15:38:12.912576","MEAN_MOTION":15.30200569,"ECCENTRICITY":0.00012576,"INCLINATION":53.1581,"RA_OF_ASC_NODE":321.6194,"ARG_OF_PERICENTER":89.0841,"MEAN_ANOMALY":271.0304,"EPHEMERIS_TYPE":0,"CLASSIFICATION_TYPE":"U","NORAD_CAT_ID":66946,"ELEMENT_SET_NO":999,"REV_AT_EPOCH":1663,"BSTAR":0.00055236401,"MEAN_MOTION_DOT":0.00016036,"MEAN_MOTION_DDOT":0},{"OBJECT_NAME":"STARLINK-36089","OBJECT_ID":"2025-286Y","EPOCH":"2026-03-17T09:43:16.556736","MEAN_MOTION":15.30205258,"ECCENTRICITY":0.00012635,"INCLINATION":53.1607,"RA_OF_ASC_NODE":322.9227,"ARG_OF_PERICENTER":91.7017,"MEAN_ANOMALY":268.4129,"EPHEMERIS_TYPE":0,"CLASSIFICATION_TYPE":"U","NORAD_CAT_ID":66947,"ELEMENT_SET_NO":999,"REV_AT_EPOCH":1659,"BSTAR":0.00032692367,"MEAN_MOTION_DOT":9.337e-5,"MEAN_MOTION_DDOT":0},{"OBJECT_NAME":"STARLINK-36116","OBJECT_ID":"2025-286Z","EPOCH":"2026-03-17T15:29:05.851968","MEAN_MOTION":15.30201198,"ECCENTRICITY":0.00013429,"INCLINATION":53.158,"RA_OF_ASC_NODE":321.5782,"ARG_OF_PERICENTER":81.5607,"MEAN_ANOMALY":278.5546,"EPHEMERIS_TYPE":0,"CLASSIFICATION_TYPE":"U","NORAD_CAT_ID":66948,"ELEMENT_SET_NO":999,"REV_AT_EPOCH":1662,"BSTAR":0.00046389542,"MEAN_MOTION_DOT":0.00013405,"MEAN_MOTION_DDOT":0},{"OBJECT_NAME":"STARLINK-36096","OBJECT_ID":"2025-286AA","EPOCH":"2026-03-16T23:07:32.066112","MEAN_MOTION":15.30195043,"ECCENTRICITY":0.00012845,"INCLINATION":53.1597,"RA_OF_ASC_NODE":324.4341,"ARG_OF_PERICENTER":126.9876,"MEAN_ANOMALY":233.1242,"EPHEMERIS_TYPE":0,"CLASSIFICATION_TYPE":"U","NORAD_CAT_ID":66949,"ELEMENT_SET_NO":999,"REV_AT_EPOCH":1653,"BSTAR":0.00076117946,"MEAN_MOTION_DOT":0.00022249,"MEAN_MOTION_DDOT":0},{"OBJECT_NAME":"STARLINK-36111","OBJECT_ID":"2025-286AB","EPOCH":"2026-03-17T15:48:50.990400","MEAN_MOTION":15.30206402,"ECCENTRICITY":0.00011993,"INCLINATION":53.1592,"RA_OF_ASC_NODE":321.6629,"ARG_OF_PERICENTER":89.134,"MEAN_ANOMALY":270.9799,"EPHEMERIS_TYPE":0,"CLASSIFICATION_TYPE":"U","NORAD_CAT_ID":66950,"ELEMENT_SET_NO":999,"REV_AT_EPOCH":1663,"BSTAR":0.00036243024,"MEAN_MOTION_DOT":0.00010392,"MEAN_MOTION_DDOT":0},{"OBJECT_NAME":"STARLINK-35999","OBJECT_ID":"2025-286AC","EPOCH":"2026-03-17T09:18:57.675456","MEAN_MOTION":15.30201097,"ECCENTRICITY":0.00010624,"INCLINATION":53.1597,"RA_OF_ASC_NODE":322.8133,"ARG_OF_PERICENTER":96.5648,"MEAN_ANOMALY":263.5473,"EPHEMERIS_TYPE":0,"CLASSIFICATION_TYPE":"U","NORAD_CAT_ID":66951,"ELEMENT_SET_NO":999,"REV_AT_EPOCH":1659,"BSTAR":0.00060563954,"MEAN_MOTION_DOT":0.00017621,"MEAN_MOTION_DDOT":0},{"OBJECT_NAME":"STARLINK-36122","OBJECT_ID":"2025-286AD","EPOCH":"2026-03-17T09:52:21.865152","MEAN_MOTION":15.30259331,"ECCENTRICITY":8.967e-5,"INCLINATION":53.1592,"RA_OF_ASC_NODE":322.9596,"ARG_OF_PERICENTER":113.0638,"MEAN_ANOMALY":247.0457,"EPHEMERIS_TYPE":0,"CLASSIFICATION_TYPE":"U","NORAD_CAT_ID":66952,"ELEMENT_SET_NO":999,"REV_AT_EPOCH":1659,"BSTAR":0.00061438554,"MEAN_MOTION_DOT":0.00017914,"MEAN_MOTION_DDOT":0},{"OBJECT_NAME":"STARLINK-35887","OBJECT_ID":"2025-288A","EPOCH":"2026-03-17T10:30:13.666752","MEAN_MOTION":15.27586208,"ECCENTRICITY":1.125e-5,"INCLINATION":43.0034,"RA_OF_ASC_NODE":339.5935,"ARG_OF_PERICENTER":309.3593,"MEAN_ANOMALY":50.7249,"EPHEMERIS_TYPE":0,"CLASSIFICATION_TYPE":"U","NORAD_CAT_ID":66959,"ELEMENT_SET_NO":999,"REV_AT_EPOCH":1647,"BSTAR":0.00054489758,"MEAN_MOTION_DOT":0.00014765,"MEAN_MOTION_DDOT":0},{"OBJECT_NAME":"STARLINK-35879","OBJECT_ID":"2025-288B","EPOCH":"2026-03-17T10:50:33.523296","MEAN_MOTION":15.27592976,"ECCENTRICITY":0.00014103,"INCLINATION":43.0036,"RA_OF_ASC_NODE":339.695,"ARG_OF_PERICENTER":255.3608,"MEAN_ANOMALY":104.7088,"EPHEMERIS_TYPE":0,"CLASSIFICATION_TYPE":"U","NORAD_CAT_ID":66960,"ELEMENT_SET_NO":999,"REV_AT_EPOCH":1647,"BSTAR":0.0002449967,"MEAN_MOTION_DOT":6.488e-5,"MEAN_MOTION_DDOT":0},{"OBJECT_NAME":"STARLINK-35761","OBJECT_ID":"2025-288C","EPOCH":"2026-03-17T10:00:36.615744","MEAN_MOTION":15.27602199,"ECCENTRICITY":0.00010306,"INCLINATION":42.9987,"RA_OF_ASC_NODE":339.4282,"ARG_OF_PERICENTER":273.5446,"MEAN_ANOMALY":86.5287,"EPHEMERIS_TYPE":0,"CLASSIFICATION_TYPE":"U","NORAD_CAT_ID":66961,"ELEMENT_SET_NO":999,"REV_AT_EPOCH":1647,"BSTAR":0.00073280899,"MEAN_MOTION_DOT":0.00019971,"MEAN_MOTION_DDOT":0},{"OBJECT_NAME":"STARLINK-35874","OBJECT_ID":"2025-288D","EPOCH":"2026-03-17T00:30:19.387872","MEAN_MOTION":15.27584599,"ECCENTRICITY":0.00011418,"INCLINATION":42.9994,"RA_OF_ASC_NODE":342.4768,"ARG_OF_PERICENTER":256.9852,"MEAN_ANOMALY":103.0873,"EPHEMERIS_TYPE":0,"CLASSIFICATION_TYPE":"U","NORAD_CAT_ID":66962,"ELEMENT_SET_NO":999,"REV_AT_EPOCH":1640,"BSTAR":0.0010708345,"MEAN_MOTION_DOT":0.00029326,"MEAN_MOTION_DDOT":0},{"OBJECT_NAME":"STARLINK-36133","OBJECT_ID":"2025-288E","EPOCH":"2026-03-17T10:52:25.357728","MEAN_MOTION":15.27594881,"ECCENTRICITY":0.00016384,"INCLINATION":43.0045,"RA_OF_ASC_NODE":339.7008,"ARG_OF_PERICENTER":257.8799,"MEAN_ANOMALY":102.1869,"EPHEMERIS_TYPE":0,"CLASSIFICATION_TYPE":"U","NORAD_CAT_ID":66963,"ELEMENT_SET_NO":999,"REV_AT_EPOCH":1647,"BSTAR":0.0009634578,"MEAN_MOTION_DOT":0.00026357,"MEAN_MOTION_DDOT":0},{"OBJECT_NAME":"STARLINK-36104","OBJECT_ID":"2025-288F","EPOCH":"2026-03-17T00:17:23.292096","MEAN_MOTION":15.27593713,"ECCENTRICITY":0.0002249,"INCLINATION":43.0023,"RA_OF_ASC_NODE":342.4147,"ARG_OF_PERICENTER":263.988,"MEAN_ANOMALY":96.0715,"EPHEMERIS_TYPE":0,"CLASSIFICATION_TYPE":"U","NORAD_CAT_ID":66964,"ELEMENT_SET_NO":999,"REV_AT_EPOCH":1640,"BSTAR":0.00090344089,"MEAN_MOTION_DOT":0.00024693,"MEAN_MOTION_DDOT":0},{"OBJECT_NAME":"STARLINK-36067","OBJECT_ID":"2025-288G","EPOCH":"2026-03-17T10:17:16.396800","MEAN_MOTION":15.27601156,"ECCENTRICITY":0.00014133,"INCLINATION":43.0014,"RA_OF_ASC_NODE":339.5201,"ARG_OF_PERICENTER":279.6886,"MEAN_ANOMALY":80.3806,"EPHEMERIS_TYPE":0,"CLASSIFICATION_TYPE":"U","NORAD_CAT_ID":66965,"ELEMENT_SET_NO":999,"REV_AT_EPOCH":1647,"BSTAR":0.00078351819,"MEAN_MOTION_DOT":0.00021375,"MEAN_MOTION_DDOT":0},{"OBJECT_NAME":"STARLINK-36139","OBJECT_ID":"2025-288H","EPOCH":"2026-03-17T10:19:05.677248","MEAN_MOTION":15.27663199,"ECCENTRICITY":7.643e-5,"INCLINATION":43.003,"RA_OF_ASC_NODE":339.5254,"ARG_OF_PERICENTER":117.1579,"MEAN_ANOMALY":242.9351,"EPHEMERIS_TYPE":0,"CLASSIFICATION_TYPE":"U","NORAD_CAT_ID":66966,"ELEMENT_SET_NO":999,"REV_AT_EPOCH":1647,"BSTAR":0.0011966612,"MEAN_MOTION_DOT":0.00032898,"MEAN_MOTION_DDOT":0},{"OBJECT_NAME":"STARLINK-36136","OBJECT_ID":"2025-288J","EPOCH":"2026-03-17T10:33:54.861120","MEAN_MOTION":15.27607609,"ECCENTRICITY":0.0001845,"INCLINATION":43.0032,"RA_OF_ASC_NODE":339.6071,"ARG_OF_PERICENTER":261.3568,"MEAN_ANOMALY":98.7075,"EPHEMERIS_TYPE":0,"CLASSIFICATION_TYPE":"U","NORAD_CAT_ID":66967,"ELEMENT_SET_NO":999,"REV_AT_EPOCH":1647,"BSTAR":0.00071865015,"MEAN_MOTION_DOT":0.00019583,"MEAN_MOTION_DDOT":0},{"OBJECT_NAME":"STARLINK-36152","OBJECT_ID":"2025-288K","EPOCH":"2026-03-17T00:08:08.274912","MEAN_MOTION":15.27594081,"ECCENTRICITY":0.0001156,"INCLINATION":43.0072,"RA_OF_ASC_NODE":342.3656,"ARG_OF_PERICENTER":255.9676,"MEAN_ANOMALY":104.1048,"EPHEMERIS_TYPE":0,"CLASSIFICATION_TYPE":"U","NORAD_CAT_ID":66968,"ELEMENT_SET_NO":999,"REV_AT_EPOCH":1640,"BSTAR":0.00096773,"MEAN_MOTION_DOT":0.00026475,"MEAN_MOTION_DDOT":0},{"OBJECT_NAME":"STARLINK-36149","OBJECT_ID":"2025-288L","EPOCH":"2026-03-17T00:21:05.583744","MEAN_MOTION":15.27592437,"ECCENTRICITY":9.8e-5,"INCLINATION":43.0006,"RA_OF_ASC_NODE":342.4352,"ARG_OF_PERICENTER":259.804,"MEAN_ANOMALY":100.2701,"EPHEMERIS_TYPE":0,"CLASSIFICATION_TYPE":"U","NORAD_CAT_ID":66969,"ELEMENT_SET_NO":999,"REV_AT_EPOCH":1640,"BSTAR":0.00095092,"MEAN_MOTION_DOT":0.00026007,"MEAN_MOTION_DDOT":0},{"OBJECT_NAME":"STARLINK-35703","OBJECT_ID":"2025-288M","EPOCH":"2026-03-17T10:13:33.117600","MEAN_MOTION":15.27598101,"ECCENTRICITY":0.00017577,"INCLINATION":42.9957,"RA_OF_ASC_NODE":339.4912,"ARG_OF_PERICENTER":285.7529,"MEAN_ANOMALY":74.3129,"EPHEMERIS_TYPE":0,"CLASSIFICATION_TYPE":"U","NORAD_CAT_ID":66970,"ELEMENT_SET_NO":999,"REV_AT_EPOCH":1647,"BSTAR":0.00048236572,"MEAN_MOTION_DOT":0.00013043,"MEAN_MOTION_DDOT":0},{"OBJECT_NAME":"STARLINK-35678","OBJECT_ID":"2025-288N","EPOCH":"2026-03-17T10:41:18.942432","MEAN_MOTION":15.2760052,"ECCENTRICITY":0.00013867,"INCLINATION":43.0045,"RA_OF_ASC_NODE":339.6413,"ARG_OF_PERICENTER":276.2199,"MEAN_ANOMALY":83.8495,"EPHEMERIS_TYPE":0,"CLASSIFICATION_TYPE":"U","NORAD_CAT_ID":66971,"ELEMENT_SET_NO":999,"REV_AT_EPOCH":1647,"BSTAR":0.0008445144,"MEAN_MOTION_DOT":0.00023064,"MEAN_MOTION_DDOT":0},{"OBJECT_NAME":"STARLINK-34846","OBJECT_ID":"2025-288P","EPOCH":"2026-03-17T00:59:44.384352","MEAN_MOTION":15.27591666,"ECCENTRICITY":0.0001286,"INCLINATION":43.0017,"RA_OF_ASC_NODE":341.773,"ARG_OF_PERICENTER":270.0548,"MEAN_ANOMALY":90.0157,"EPHEMERIS_TYPE":0,"CLASSIFICATION_TYPE":"U","NORAD_CAT_ID":66972,"ELEMENT_SET_NO":999,"REV_AT_EPOCH":1641,"BSTAR":0.00097474,"MEAN_MOTION_DOT":0.00026667,"MEAN_MOTION_DDOT":0},{"OBJECT_NAME":"STARLINK-35778","OBJECT_ID":"2025-288Q","EPOCH":"2026-03-17T10:06:09.469152","MEAN_MOTION":15.2759728,"ECCENTRICITY":0.00019694,"INCLINATION":42.9994,"RA_OF_ASC_NODE":339.4566,"ARG_OF_PERICENTER":289.0288,"MEAN_ANOMALY":71.0351,"EPHEMERIS_TYPE":0,"CLASSIFICATION_TYPE":"U","NORAD_CAT_ID":66973,"ELEMENT_SET_NO":999,"REV_AT_EPOCH":1647,"BSTAR":0.00048893671,"MEAN_MOTION_DOT":0.00013224,"MEAN_MOTION_DDOT":0}]
